STARLINK-6298           
1 56391U 23061T   25230.03436551 -.00000079  00000+0  91937-5 0  9995
2 56391  43.0023 223.7192 0000912 301.9062  58.1691 15.02537089126129
STARLINK-6301           
1 56392U 23061U   25230.30287594  .00000025  00000+0  16897-4 0  9998
2 56392  43.0021 210.1636 0001140 273.3699  86.7013 15.02533033126303
STARLINK-6303           
1 56393U 23061V   25230.03105118  .00000704  00000+0  67190-4 0  9996
2 56393  43.0024 223.6990 0000995 288.9053  71.1682 15.02529493126127
STARLINK-6305           
1 56394U 23061W   25230.22529454 -.00000354  00000+0 -11109-4 0  9993
2 56394  43.0026 210.4440 0001325 275.2166  84.8525 15.02536638126582
STARLINK-6273           
1 56395U 23061X   25230.22863009 -.00002264  00000+0 -15252-3 0  9995
2 56395  43.0023 210.4646 0001305 268.8574  91.2119 15.02547243127000
STARLINK-6302           
1 56396U 23061Y   25230.21974451  .00000130  00000+0  24706-4 0  9992
2 56396  43.0029 210.4013 0001159 273.2354  86.8355 15.02537973121429
STARLINK-6271           
1 56397U 23061Z   25230.23084344  .00000378  00000+0  43049-4 0  9993
2 56397  43.0033 210.4848 0000959 284.9379  75.1357 15.02537993126581
STARLINK-6288           
1 56398U 23061AA  25230.21645168 -.00001880  00000+0 -12422-3 0  9990
2 56398  43.0025 210.3770 0001488 276.5866  83.4807 15.02517731126582
STARLINK-6277           
1 56399U 23061AB  25230.22196997 -.00000450  00000+0 -18229-4 0  9997
2 56399  43.0021 210.4181 0000988 266.1811  93.8918 15.02532529126293
STARLINK-6267           
1 56400U 23061AC  25230.21086687  .00000072  00000+0  20382-4 0  9994
2 56400  43.0019 210.3346 0001255 271.6343  88.4355 15.02534628126583
STARLINK-6256           
1 56401U 23061AD  25230.21889161  .00000482  00000+0  50732-4 0  9990
2 56401  43.0026 197.3823 0001167 274.4616  85.6093 15.02536241126448
STARLINK-6284           
1 56403U 23061AF  25230.34603762 -.00008053  00000+0 -58131-3 0  9991
2 56403  43.0010 209.6213 0001569 275.8180  84.2483 15.02564417126310
STARLINK-6287           
1 56404U 23061AG  25230.33494816  .00000756  00000+0  71040-4 0  9994
2 56404  43.0013 209.5425 0001212 271.4478  88.6226 15.02531712126310
STARLINK-6285           
1 56405U 23061AH  25230.20753673  .00000260  00000+0  34291-4 0  9997
2 56405  43.0023 210.3087 0001154 272.7042  87.3668 15.02533814126290
STARLINK-6283           
1 56406U 23061AJ  25230.25958537  .00000570  00000+0  57278-4 0  9993
2 56406  43.0023 209.8338 0001155 273.3032  86.7678 15.02534969126308
STARLINK-6282           
1 56407U 23061AK  25230.00479169  .00000599  00000+0  59380-4 0  9993
2 56407  43.0028 211.3662 0001115 275.0629  85.0086 15.02537833126262
STARLINK-6289           
1 56408U 23061AL  25230.25183238  .00001016  00000+0  90294-4 0  9994
2 56408  43.0032 209.7680 0001035 288.4679  71.6051 15.02536573126301
