[{"OBJECT_NAME":"STARLINK-6298","OBJECT_ID":"2023-061T","EPOCH":"2025-08-18T00:49:29.180064","MEAN_MOTION":15.02537089,"ECCENTRICITY":9.12e-5,"INCLINATION":43.0023,"RA_OF_ASC_NODE":223.7192,"ARG_OF_PERICENTER":301.9062,"MEAN_ANOMALY":58.1691,"EPHEMERIS_TYPE":0,"CLASSIFICATION_TYPE":"U","NORAD_CAT_ID":56391,"ELEMENT_SET_NO":999,"REV_AT_EPOCH":12612,"BSTAR":9.1937e-6,"MEAN_MOTION_DOT":-7.9e-7,"MEAN_MOTION_DDOT":0},{"OBJECT_NAME":"STARLINK-6301","OBJECT_ID":"2023-061U","EPOCH":"2025-08-18T07:16:08.481216","MEAN_MOTION":15.02533033,"ECCENTRICITY":0.000114,"INCLINATION":43.0021,"RA_OF_ASC_NODE":210.1636,"ARG_OF_PERICENTER":273.3699,"MEAN_ANOMALY":86.7013,"EPHEMERIS_TYPE":0,"CLASSIFICATION_TYPE":"U","NORAD_CAT_ID":56392,"ELEMENT_SET_NO":999,"REV_AT_EPOCH":12630,"BSTAR":1.6897e-5,"MEAN_MOTION_DOT":2.5e-7,"MEAN_MOTION_DDOT":0},{"OBJECT_NAME":"STARLINK-6303","OBJECT_ID":"2023-061V","EPOCH":"2025-08-18T00:44:42.821952","MEAN_MOTION":15.02529493,"ECCENTRICITY":9.95e-5,"INCLINATION":43.0024,"RA_OF_ASC_NODE":223.699,"ARG_OF_PERICENTER":288.9053,"MEAN_ANOMALY":71.1682,"EPHEMERIS_TYPE":0,"CLASSIFICATION_TYPE":"U","NORAD_CAT_ID":56393,"ELEMENT_SET_NO":999,"REV_AT_EPOCH":12612,"BSTAR":6.719e-5,"MEAN_MOTION_DOT":7.04e-6,"MEAN_MOTION_DDOT":0},{"OBJECT_NAME":"STARLINK-6305","OBJECT_ID":"2023-061W","EPOCH":"2025-08-18T05:24:25.448256","MEAN_MOTION":15.02536638,"ECCENTRICITY":0.0001325,"INCLINATION":43.0026,"RA_OF_ASC_NODE":210.444,"ARG_OF_PERICENTER":275.2166,"MEAN_ANOMALY":84.8525,"EPHEMERIS_TYPE":0,"CLASSIFICATION_TYPE":"U","NORAD_CAT_ID":56394,"ELEMENT_SET_NO":999,"REV_AT_EPOCH":12658,"BSTAR":-1.1109e-5,"MEAN_MOTION_DOT":-3.54e-6,"MEAN_MOTION_DDOT":0},{"OBJECT_NAME":"STARLINK-6273","OBJECT_ID":"2023-061X","EPOCH":"2025-08-18T05:29:13.639776","MEAN_MOTION":15.02547243,"ECCENTRICITY":0.0001305,"INCLINATION":43.0023,"RA_OF_ASC_NODE":210.4646,"ARG_OF_PERICENTER":268.8574,"MEAN_ANOMALY":91.2119,"EPHEMERIS_TYPE":0,"CLASSIFICATION_TYPE":"U","NORAD_CAT_ID":56395,"ELEMENT_SET_NO":999,"REV_AT_EPOCH":12700,"BSTAR":-0.00015252,"MEAN_MOTION_DOT":-2.264e-5,"MEAN_MOTION_DDOT":0},{"OBJECT_NAME":"STARLINK-6302","OBJECT_ID":"2023-061Y","EPOCH":"2025-08-18T05:16:25.925664","MEAN_MOTION":15.02537973,"ECCENTRICITY":0.0001159,"INCLINATION":43.0029,"RA_OF_ASC_NODE":210.4013,"ARG_OF_PERICENTER":273.2354,"MEAN_ANOMALY":86.8355,"EPHEMERIS_TYPE":0,"CLASSIFICATION_TYPE":"U","NORAD_CAT_ID":56396,"ELEMENT_SET_NO":999,"REV_AT_EPOCH":12142,"BSTAR":2.4706e-5,"MEAN_MOTION_DOT":1.3e-6,"MEAN_MOTION_DDOT":0},{"OBJECT_NAME":"STARLINK-6271","OBJECT_ID":"2023-061Z","EPOCH":"2025-08-18T05:32:24.873216","MEAN_MOTION":15.02537993,"ECCENTRICITY":9.59e-5,"INCLINATION":43.0033,"RA_OF_ASC_NODE":210.4848,"ARG_OF_PERICENTER":284.9379,"MEAN_ANOMALY":75.1357,"EPHEMERIS_TYPE":0,"CLASSIFICATION_TYPE":"U","NORAD_CAT_ID":56397,"ELEMENT_SET_NO":999,"REV_AT_EPOCH":12658,"BSTAR":4.3049e-5,"MEAN_MOTION_DOT":3.78e-6,"MEAN_MOTION_DDOT":0},{"OBJECT_NAME":"STARLINK-6288","OBJECT_ID":"2023-061AA","EPOCH":"2025-08-18T05:11:41.425152","MEAN_MOTION":15.02517731,"ECCENTRICITY":0.0001488,"INCLINATION":43.0025,"RA_OF_ASC_NODE":210.377,"ARG_OF_PERICENTER":276.5866,"MEAN_ANOMALY":83.4807,"EPHEMERIS_TYPE":0,"CLASSIFICATION_TYPE":"U","NORAD_CAT_ID":56398,"ELEMENT_SET_NO":999,"REV_AT_EPOCH":12658,"BSTAR":-0.00012422,"MEAN_MOTION_DOT":-1.88e-5,"MEAN_MOTION_DDOT":0},{"OBJECT_NAME":"STARLINK-6277","OBJECT_ID":"2023-061AB","EPOCH":"2025-08-18T05:19:38.205408","MEAN_MOTION":15.02532529,"ECCENTRICITY":9.88e-5,"INCLINATION":43.0021,"RA_OF_ASC_NODE":210.4181,"ARG_OF_PERICENTER":266.1811,"MEAN_ANOMALY":93.8918,"EPHEMERIS_TYPE":0,"CLASSIFICATION_TYPE":"U","NORAD_CAT_ID":56399,"ELEMENT_SET_NO":999,"REV_AT_EPOCH":12629,"BSTAR":-1.8229e-5,"MEAN_MOTION_DOT":-4.5e-6,"MEAN_MOTION_DDOT":0},{"OBJECT_NAME":"STARLINK-6267","OBJECT_ID":"2023-061AC","EPOCH":"2025-08-18T05:03:38.897568","MEAN_MOTION":15.02534628,"ECCENTRICITY":0.0001255,"INCLINATION":43.0019,"RA_OF_ASC_NODE":210.3346,"ARG_OF_PERICENTER":271.6343,"MEAN_ANOMALY":88.4355,"EPHEMERIS_TYPE":0,"CLASSIFICATION_TYPE":"U","NORAD_CAT_ID":56400,"ELEMENT_SET_NO":999,"REV_AT_EPOCH":12658,"BSTAR":2.0382e-5,"MEAN_MOTION_DOT":7.2e-7,"MEAN_MOTION_DDOT":0},{"OBJECT_NAME":"STARLINK-6256","OBJECT_ID":"2023-061AD","EPOCH":"2025-08-18T05:15:12.235104","MEAN_MOTION":15.02536241,"ECCENTRICITY":0.0001167,"INCLINATION":43.0026,"RA_OF_ASC_NODE":197.3823,"ARG_OF_PERICENTER":274.4616,"MEAN_ANOMALY":85.6093,"EPHEMERIS_TYPE":0,"CLASSIFICATION_TYPE":"U","NORAD_CAT_ID":56401,"ELEMENT_SET_NO":999,"REV_AT_EPOCH":12644,"BSTAR":5.0732e-5,"MEAN_MOTION_DOT":4.82e-6,"MEAN_MOTION_DDOT":0},{"OBJECT_NAME":"STARLINK-6284","OBJECT_ID":"2023-061AF","EPOCH":"2025-08-18T08:18:17.650368","MEAN_MOTION":15.02564417,"ECCENTRICITY":0.0001569,"INCLINATION":43.001,"RA_OF_ASC_NODE":209.6213,"ARG_OF_PERICENTER":275.818,"MEAN_ANOMALY":84.2483,"EPHEMERIS_TYPE":0,"CLASSIFICATION_TYPE":"U","NORAD_CAT_ID":56403,"ELEMENT_SET_NO":999,"REV_AT_EPOCH":12631,"BSTAR":-0.00058131,"MEAN_MOTION_DOT":-8.053e-5,"MEAN_MOTION_DDOT":0},{"OBJECT_NAME":"STARLINK-6287","OBJECT_ID":"2023-061AG","EPOCH":"2025-08-18T08:02:19.521024","MEAN_MOTION":15.02531712,"ECCENTRICITY":0.0001212,"INCLINATION":43.0013,"RA_OF_ASC_NODE":209.5425,"ARG_OF_PERICENTER":271.4478,"MEAN_ANOMALY":88.6226,"EPHEMERIS_TYPE":0,"CLASSIFICATION_TYPE":"U","NORAD_CAT_ID":56404,"ELEMENT_SET_NO":999,"REV_AT_EPOCH":12631,"BSTAR":7.104e-5,"MEAN_MOTION_DOT":7.56e-6,"MEAN_MOTION_DDOT":0},{"OBJECT_NAME":"STARLINK-6285","OBJECT_ID":"2023-061AH","EPOCH":"2025-08-18T04:58:51.173472","MEAN_MOTION":15.02533814,"ECCENTRICITY":0.0001154,"INCLINATION":43.0023,"RA_OF_ASC_NODE":210.3087,"ARG_OF_PERICENTER":272.7042,"MEAN_ANOMALY":87.3668,"EPHEMERIS_TYPE":0,"CLASSIFICATION_TYPE":"U","NORAD_CAT_ID":56405,"ELEMENT_SET_NO":999,"REV_AT_EPOCH":12629,"BSTAR":3.4291e-5,"MEAN_MOTION_DOT":2.6e-6,"MEAN_MOTION_DDOT":0},{"OBJECT_NAME":"STARLINK-6283","OBJECT_ID":"2023-061AJ","EPOCH":"2025-08-18T06:13:48.175968","MEAN_MOTION":15.02534969,"ECCENTRICITY":0.0001155,"INCLINATION":43.0023,"RA_OF_ASC_NODE":209.8338,"ARG_OF_PERICENTER":273.3032,"MEAN_ANOMALY":86.7678,"EPHEMERIS_TYPE":0,"CLASSIFICATION_TYPE":"U","NORAD_CAT_ID":56406,"ELEMENT_SET_NO":999,"REV_AT_EPOCH":12630,"BSTAR":5.7278e-5,"MEAN_MOTION_DOT":5.7e-6,"MEAN_MOTION_DDOT":0},{"OBJECT_NAME":"STARLINK-6282","OBJECT_ID":"2023-061AK","EPOCH":"2025-08-18T00:06:54.002016","MEAN_MOTION":15.02537833,"ECCENTRICITY":0.0001115,"INCLINATION":43.0028,"RA_OF_ASC_NODE":211.3662,"ARG_OF_PERICENTER":275.0629,"MEAN_ANOMALY":85.0086,"EPHEMERIS_TYPE":0,"CLASSIFICATION_TYPE":"U","NORAD_CAT_ID":56407,"ELEMENT_SET_NO":999,"REV_AT_EPOCH":12626,"BSTAR":5.938e-5,"MEAN_MOTION_DOT":5.99e-6,"MEAN_MOTION_DDOT":0},{"OBJECT_NAME":"STARLINK-6289","OBJECT_ID":"2023-061AL","EPOCH":"2025-08-18T06:02:38.317632","MEAN_MOTION":15.02536573,"ECCENTRICITY":0.0001035,"INCLINATION":43.0032,"RA_OF_ASC_NODE":209.768,"ARG_OF_PERICENTER":288.4679,"MEAN_ANOMALY":71.6051,"EPHEMERIS_TYPE":0,"CLASSIFICATION_TYPE":"U","NORAD_CAT_ID":56408,"ELEMENT_SET_NO":999,"REV_AT_EPOCH":12630,"BSTAR":9.0294e-5,"MEAN_MOTION_DOT":1.016e-5,"MEAN_MOTION_DDOT":0}]
